[{"OBJECT_NAME":"FENGYUN 1C DEB","OBJECT_ID":"1999-025CQF","EPOCH":"2026-03-27T06:42:16.683264","MEAN_MOTION":14.14367672,"ECCENTRICITY":0.0111417,"INCLINATION":98.6575,"RA_OF_ASC_NODE":93.6262,"ARG_OF_PERICENTER":184.5002,"MEAN_ANOMALY":175.518,"EPHEMERIS_TYPE":0,"CLASSIFICATION_TYPE":"U","NORAD_CAT_ID":32089,"ELEMENT_SET_NO":999,"REV_AT_EPOCH":64693,"BSTAR":0.00046484,"MEAN_MOTION_DOT":9.01e-6,"MEAN_MOTION_DDOT":0},{"OBJECT_NAME":"FENGYUN 1C DEB","OBJECT_ID":"1999-025CQK","EPOCH":"2026-04-04T21:16:03.053280","MEAN_MOTION":14.37944234,"ECCENTRICITY":0.00793602,"INCLINATION":98.911,"RA_OF_ASC_NODE":316.9437,"ARG_OF_PERICENTER":20.1031,"MEAN_ANOMALY":340.3251,"EPHEMERIS_TYPE":0,"CLASSIFICATION_TYPE":"U","NORAD_CAT_ID":32093,"ELEMENT_SET_NO":999,"REV_AT_EPOCH":98143,"BSTAR":0.00045980492,"MEAN_MOTION_DOT":1.392e-5,"MEAN_MOTION_DDOT":0},{"OBJECT_NAME":"FENGYUN 1C DEB","OBJECT_ID":"1999-025CQL","EPOCH":"2026-04-03T04:32:40.211520","MEAN_MOTION":14.10901121,"ECCENTRICITY":0.00341643,"INCLINATION":98.755,"RA_OF_ASC_NODE":85.6845,"ARG_OF_PERICENTER":314.0326,"MEAN_ANOMALY":45.8032,"EPHEMERIS_TYPE":0,"CLASSIFICATION_TYPE":"U","NORAD_CAT_ID":32094,"ELEMENT_SET_NO":999,"REV_AT_EPOCH":95936,"BSTAR":0.00056929649,"MEAN_MOTION_DOT":9.83e-6,"MEAN_MOTION_DDOT":0},{"OBJECT_NAME":"FENGYUN 1C DEB","OBJECT_ID":"1999-025CQM","EPOCH":"2026-03-30T18:30:59.362560","MEAN_MOTION":14.16183896,"ECCENTRICITY":0.0078898,"INCLINATION":98.6363,"RA_OF_ASC_NODE":107.1657,"ARG_OF_PERICENTER":141.5592,"MEAN_ANOMALY":219.124,"EPHEMERIS_TYPE":0,"CLASSIFICATION_TYPE":"U","NORAD_CAT_ID":32095,"ELEMENT_SET_NO":999,"REV_AT_EPOCH":96346,"BSTAR":0.00030417163,"MEAN_MOTION_DOT":5.78e-6,"MEAN_MOTION_DDOT":0},{"OBJECT_NAME":"FENGYUN 1C DEB","OBJECT_ID":"1999-025CQN","EPOCH":"2026-04-04T01:00:53.544960","MEAN_MOTION":13.90521129,"ECCENTRICITY":0.01360504,"INCLINATION":99.0605,"RA_OF_ASC_NODE":125.3059,"ARG_OF_PERICENTER":194.5402,"MEAN_ANOMALY":165.1826,"EPHEMERIS_TYPE":0,"CLASSIFICATION_TYPE":"U","NORAD_CAT_ID":32096,"ELEMENT_SET_NO":999,"REV_AT_EPOCH":94422,"BSTAR":0.0013029088,"MEAN_MOTION_DOT":1.704e-5,"MEAN_MOTION_DDOT":0},{"OBJECT_NAME":"FENGYUN 1C DEB","OBJECT_ID":"1999-025CQQ","EPOCH":"2026-04-03T16:56:48.282432","MEAN_MOTION":14.20509772,"ECCENTRICITY":0.01948341,"INCLINATION":98.6221,"RA_OF_ASC_NODE":88.3676,"ARG_OF_PERICENTER":155.7589,"MEAN_ANOMALY":205.2909,"EPHEMERIS_TYPE":0,"CLASSIFICATION_TYPE":"U","NORAD_CAT_ID":32098,"ELEMENT_SET_NO":999,"REV_AT_EPOCH":65817,"BSTAR":0.00036210056,"MEAN_MOTION_DOT":8.97e-6,"MEAN_MOTION_DDOT":0},{"OBJECT_NAME":"FENGYUN 1C DEB","OBJECT_ID":"1999-025CQT","EPOCH":"2026-04-01T23:48:13.140864","MEAN_MOTION":14.02350199,"ECCENTRICITY":0.0120006,"INCLINATION":99.032,"RA_OF_ASC_NODE":355.0505,"ARG_OF_PERICENTER":293.5363,"MEAN_ANOMALY":65.3233,"EPHEMERIS_TYPE":0,"CLASSIFICATION_TYPE":"U","NORAD_CAT_ID":32101,"ELEMENT_SET_NO":999,"REV_AT_EPOCH":94727,"BSTAR":0.001703,"MEAN_MOTION_DOT":2.739e-5,"MEAN_MOTION_DDOT":0},{"OBJECT_NAME":"FENGYUN 1C DEB","OBJECT_ID":"1999-025CQX","EPOCH":"2026-04-01T19:37:49.912320","MEAN_MOTION":13.40798376,"ECCENTRICITY":0.04000862,"INCLINATION":103.4621,"RA_OF_ASC_NODE":124.4053,"ARG_OF_PERICENTER":206.0261,"MEAN_ANOMALY":152.0238,"EPHEMERIS_TYPE":0,"CLASSIFICATION_TYPE":"U","NORAD_CAT_ID":32105,"ELEMENT_SET_NO":999,"REV_AT_EPOCH":61186,"BSTAR":0.002014486,"MEAN_MOTION_DOT":1.707e-5,"MEAN_MOTION_DDOT":0},{"OBJECT_NAME":"FENGYUN 1C DEB","OBJECT_ID":"1999-025CQY","EPOCH":"2026-04-02T18:50:15.748800","MEAN_MOTION":14.29270632,"ECCENTRICITY":0.01064627,"INCLINATION":101.466,"RA_OF_ASC_NODE":103.6187,"ARG_OF_PERICENTER":109.2381,"MEAN_ANOMALY":252.0345,"EPHEMERIS_TYPE":0,"CLASSIFICATION_TYPE":"U","NORAD_CAT_ID":32106,"ELEMENT_SET_NO":999,"REV_AT_EPOCH":70977,"BSTAR":0.003456462,"MEAN_MOTION_DOT":9.292e-5,"MEAN_MOTION_DDOT":0},{"OBJECT_NAME":"FENGYUN 1C DEB","OBJECT_ID":"1999-025CRB","EPOCH":"2026-04-01T09:38:13.313472","MEAN_MOTION":14.34315832,"ECCENTRICITY":0.02051784,"INCLINATION":98.3485,"RA_OF_ASC_NODE":332.3935,"ARG_OF_PERICENTER":345.5718,"MEAN_ANOMALY":13.9663,"EPHEMERIS_TYPE":0,"CLASSIFICATION_TYPE":"U","NORAD_CAT_ID":32109,"ELEMENT_SET_NO":999,"REV_AT_EPOCH":66460,"BSTAR":0.00042884994,"MEAN_MOTION_DOT":1.477e-5,"MEAN_MOTION_DDOT":0},{"OBJECT_NAME":"FENGYUN 1C DEB","OBJECT_ID":"1999-025CRC","EPOCH":"2026-04-02T11:07:49.045440","MEAN_MOTION":14.2989934,"ECCENTRICITY":0.00333084,"INCLINATION":99.5511,"RA_OF_ASC_NODE":277.1791,"ARG_OF_PERICENTER":52.9773,"MEAN_ANOMALY":337.6796,"EPHEMERIS_TYPE":0,"CLASSIFICATION_TYPE":"U","NORAD_CAT_ID":32110,"ELEMENT_SET_NO":999,"REV_AT_EPOCH":65970,"BSTAR":0.0018349891,"MEAN_MOTION_DOT":4.704e-5,"MEAN_MOTION_DDOT":0},{"OBJECT_NAME":"FENGYUN 1C DEB","OBJECT_ID":"1999-025CRD","EPOCH":"2026-04-01T11:30:57.771648","MEAN_MOTION":14.31716712,"ECCENTRICITY":0.01187578,"INCLINATION":98.4491,"RA_OF_ASC_NODE":93.2694,"ARG_OF_PERICENTER":240.2518,"MEAN_ANOMALY":275.2428,"EPHEMERIS_TYPE":0,"CLASSIFICATION_TYPE":"U","NORAD_CAT_ID":32111,"ELEMENT_SET_NO":999,"REV_AT_EPOCH":97601,"BSTAR":0.00018363194,"MEAN_MOTION_DOT":4.84e-6,"MEAN_MOTION_DDOT":0},{"OBJECT_NAME":"FENGYUN 1C DEB","OBJECT_ID":"1999-025CRF","EPOCH":"2026-04-02T20:47:43.628352","MEAN_MOTION":13.94863531,"ECCENTRICITY":0.02357675,"INCLINATION":99.0104,"RA_OF_ASC_NODE":130.231,"ARG_OF_PERICENTER":282.1622,"MEAN_ANOMALY":75.3222,"EPHEMERIS_TYPE":0,"CLASSIFICATION_TYPE":"U","NORAD_CAT_ID":32113,"ELEMENT_SET_NO":999,"REV_AT_EPOCH":64435,"BSTAR":0.00087183074,"MEAN_MOTION_DOT":1.43e-5,"MEAN_MOTION_DDOT":0},{"OBJECT_NAME":"FENGYUN 1C DEB","OBJECT_ID":"1999-025CRG","EPOCH":"2026-04-04T03:50:31.017408","MEAN_MOTION":14.81087418,"ECCENTRICITY":0.00415924,"INCLINATION":99.9333,"RA_OF_ASC_NODE":242.3237,"ARG_OF_PERICENTER":2.6832,"MEAN_ANOMALY":357.4589,"EPHEMERIS_TYPE":0,"CLASSIFICATION_TYPE":"U","NORAD_CAT_ID":32114,"ELEMENT_SET_NO":999,"REV_AT_EPOCH":67391,"BSTAR":0.0033676064,"MEAN_MOTION_DOT":0.00026557,"MEAN_MOTION_DDOT":0},{"OBJECT_NAME":"FENGYUN 1C DEB","OBJECT_ID":"1999-025CRK","EPOCH":"2026-04-05T01:46:17.291136","MEAN_MOTION":14.24521198,"ECCENTRICITY":0.00291714,"INCLINATION":98.5982,"RA_OF_ASC_NODE":143.0805,"ARG_OF_PERICENTER":120.6107,"MEAN_ANOMALY":239.7955,"EPHEMERIS_TYPE":0,"CLASSIFICATION_TYPE":"U","NORAD_CAT_ID":32117,"ELEMENT_SET_NO":999,"REV_AT_EPOCH":96410,"BSTAR":0.0013411578,"MEAN_MOTION_DOT":3.082e-5,"MEAN_MOTION_DDOT":0},{"OBJECT_NAME":"FENGYUN 1C DEB","OBJECT_ID":"1999-025CRM","EPOCH":"2026-04-04T22:16:28.019712","MEAN_MOTION":14.03126008,"ECCENTRICITY":0.00854046,"INCLINATION":99.8799,"RA_OF_ASC_NODE":332.0714,"ARG_OF_PERICENTER":106.6886,"MEAN_ANOMALY":254.3673,"EPHEMERIS_TYPE":0,"CLASSIFICATION_TYPE":"U","NORAD_CAT_ID":32119,"ELEMENT_SET_NO":999,"REV_AT_EPOCH":95315,"BSTAR":0.00094183334,"MEAN_MOTION_DOT":1.463e-5,"MEAN_MOTION_DDOT":0},{"OBJECT_NAME":"FENGYUN 1C DEB","OBJECT_ID":"1999-025CRR","EPOCH":"2026-04-04T10:42:38.736288","MEAN_MOTION":14.61890583,"ECCENTRICITY":0.01586178,"INCLINATION":98.9514,"RA_OF_ASC_NODE":276.4978,"ARG_OF_PERICENTER":308.1285,"MEAN_ANOMALY":81.8003,"EPHEMERIS_TYPE":0,"CLASSIFICATION_TYPE":"U","NORAD_CAT_ID":32123,"ELEMENT_SET_NO":999,"REV_AT_EPOCH":73021,"BSTAR":0.00026604785,"MEAN_MOTION_DOT":1.525e-5,"MEAN_MOTION_DDOT":0},{"OBJECT_NAME":"FENGYUN 1C DEB","OBJECT_ID":"1999-025CRT","EPOCH":"2026-03-31T06:02:23.616672","MEAN_MOTION":14.73673352,"ECCENTRICITY":0.01642217,"INCLINATION":99.07,"RA_OF_ASC_NODE":87.9465,"ARG_OF_PERICENTER":346.8827,"MEAN_ANOMALY":12.8131,"EPHEMERIS_TYPE":0,"CLASSIFICATION_TYPE":"U","NORAD_CAT_ID":32125,"ELEMENT_SET_NO":999,"REV_AT_EPOCH":72119,"BSTAR":0.0032341496,"MEAN_MOTION_DOT":0.00026206,"MEAN_MOTION_DDOT":0},{"OBJECT_NAME":"FENGYUN 1C DEB","OBJECT_ID":"1999-025CRU","EPOCH":"2026-03-31T09:34:58.883232","MEAN_MOTION":13.57021656,"ECCENTRICITY":0.02818732,"INCLINATION":99.1044,"RA_OF_ASC_NODE":323.5298,"ARG_OF_PERICENTER":336.6276,"MEAN_ANOMALY":22.2255,"EPHEMERIS_TYPE":0,"CLASSIFICATION_TYPE":"U","NORAD_CAT_ID":32126,"ELEMENT_SET_NO":999,"REV_AT_EPOCH":63188,"BSTAR":0.001317864,"MEAN_MOTION_DOT":1.171e-5,"MEAN_MOTION_DDOT":0},{"OBJECT_NAME":"FENGYUN 1C DEB","OBJECT_ID":"1999-025CRW","EPOCH":"2026-04-02T08:53:42.868320","MEAN_MOTION":13.94538214,"ECCENTRICITY":0.03948456,"INCLINATION":99.0128,"RA_OF_ASC_NODE":141.3881,"ARG_OF_PERICENTER":279.3577,"MEAN_ANOMALY":76.3157,"EPHEMERIS_TYPE":0,"CLASSIFICATION_TYPE":"U","NORAD_CAT_ID":32128,"ELEMENT_SET_NO":999,"REV_AT_EPOCH":64527,"BSTAR":0.00045086384,"MEAN_MOTION_DOT":1.101e-5,"MEAN_MOTION_DDOT":0},{"OBJECT_NAME":"FENGYUN 1C DEB","OBJECT_ID":"1999-025CRX","EPOCH":"2026-04-04T19:56:38.588352","MEAN_MOTION":14.30274921,"ECCENTRICITY":0.00673441,"INCLINATION":99.0607,"RA_OF_ASC_NODE":222.694,"ARG_OF_PERICENTER":68.6724,"MEAN_ANOMALY":93.2073,"EPHEMERIS_TYPE":0,"CLASSIFICATION_TYPE":"U","NORAD_CAT_ID":32129,"ELEMENT_SET_NO":999,"REV_AT_EPOCH":95842,"BSTAR":0.0035246801,"MEAN_MOTION_DOT":9.335e-5,"MEAN_MOTION_DDOT":0},{"OBJECT_NAME":"FENGYUN 1C DEB","OBJECT_ID":"1999-025CRY","EPOCH":"2026-04-05T04:59:33.012672","MEAN_MOTION":14.37937632,"ECCENTRICITY":0.00820395,"INCLINATION":98.9155,"RA_OF_ASC_NODE":270.8513,"ARG_OF_PERICENTER":355.9087,"MEAN_ANOMALY":4.1418,"EPHEMERIS_TYPE":0,"CLASSIFICATION_TYPE":"U","NORAD_CAT_ID":32130,"ELEMENT_SET_NO":999,"REV_AT_EPOCH":97865,"BSTAR":0.0004502201,"MEAN_MOTION_DOT":1.365e-5,"MEAN_MOTION_DDOT":0},{"OBJECT_NAME":"FENGYUN 1C DEB","OBJECT_ID":"1999-025CSB","EPOCH":"2026-04-04T22:35:18.958560","MEAN_MOTION":14.18177561,"ECCENTRICITY":0.00362886,"INCLINATION":98.4374,"RA_OF_ASC_NODE":95.5309,"ARG_OF_PERICENTER":132.093,"MEAN_ANOMALY":228.3342,"EPHEMERIS_TYPE":0,"CLASSIFICATION_TYPE":"U","NORAD_CAT_ID":32133,"ELEMENT_SET_NO":999,"REV_AT_EPOCH":96579,"BSTAR":0.00021439761,"MEAN_MOTION_DOT":4.03e-6,"MEAN_MOTION_DDOT":0}]
